OBJECT_NAME,OBJECT_ID,EPOCH,MEAN_MOTION,ECCENTRICITY,INCLINATION,RA_OF_ASC_NODE,ARG_OF_PERICENTER,MEAN_ANOMALY,EPHEMERIS_TYPE,CLASSIFICATION_TYPE,NORAD_CAT_ID,ELEMENT_SET_NO,REV_AT_EPOCH,BSTAR,MEAN_MOTION_DOT,MEAN_MOTION_DDOT
ZHONGXING-10R,2025-036A,2026-07-14T20:57:27.440928,1.00272328,.0004175,0.0176,216.7965,290.8084,210.0013,0,U,63075,999,523,0,-.361E-5,0
TJS-15,2025-045A,2026-07-13T17:56:30.408288,1.00269569,.0003351,0.3063,85.6357,295.0634,274.4075,0,U,63157,999,502,0,-.269E-5,0
TIANLIAN 2-04,2025-062A,2026-07-14T18:55:50.949696,1.00271004,.0031596,4.3055,274.0424,9.3670,13.2136,0,U,63361,999,488,0,-.14E-5,0
TJS-16,2025-064A,2026-07-13T18:20:48.606144,1.00270806,.0002489,1.1643,81.2920,290.3397,355.8257,0,U,63397,999,465,0,-.111E-5,0
TJS-17,2025-073A,2026-07-13T18:17:39.505056,1.00270523,.0000992,1.1304,82.4646,303.0552,345.0327,0,U,63524,999,455,0,-.76E-6,0
TIANLIAN 2-05,2025-084A,2026-07-14T20:06:14.958432,1.00271253,.0002575,4.3828,279.5191,154.1451,180.9498,0,U,63662,999,465,0,.119E-5,0
TJS-19,2025-097A,2026-07-13T17:33:28.505088,1.00266719,.0003966,3.2430,317.8726,245.4291,132.8569,0,U,63924,999,441,0,-.278E-5,0
CHINASAT 3B,2025-106A,2026-07-14T17:38:06.687168,1.00270420,.0003894,0.0247,140.7771,5.4649,218.1905,0,U,64062,999,433,0,-.54E-6,0
SXM-10,2025-122A,2026-07-13T14:37:25.836384,1.00271903,.00018282,0.0157,36.2449,322.9748,35.4661,0,U,64290,999,394,0,-.21E-6,0
COSMOS 2589,2025-131A,2026-07-13T17:21:07.191360,1.00273922,.0000927,0.0273,122.3287,83.5150,84.0384,0,U,64467,999,382,0,-.296E-5,0
CHINASAT 9C,2025-132A,2026-07-14T18:59:20.613984,1.00267037,.0002959,0.0171,71.6717,43.3577,194.6620,0,U,64470,999,442,0,0,0
MTG-S1,2025-143A,2026-07-14T18:32:54.583008,1.00273434,.0003464,0.5846,345.0208,261.5494,323.8774,0,U,64723,999,369,0,-.15E-6,0
DROR 1,2025-148A,2026-07-14T18:31:54.679296,1.00271852,.0001975,0.0472,256.8468,139.2610,170.4949,0,U,64784,999,357,0,-.43E-6,0
SHIYAN-29,2025-196A,2026-07-14T20:09:41.361120,1.00276426,.0013306,28.8510,18.1865,177.9549,134.2779,0,U,65486,999,315,0,-.286E-5,0
NUSANTARA LIMA (NUSANTARA 5),2025-205A,2026-07-14T19:05:12.552288,1.00268572,.0000314,0.0077,124.7696,83.3862,123.6307,0,U,65588,999,299,0,-.366E-5,0
TJS-20,2025-238A,2026-07-14T20:58:14.306016,1.00274781,.0004293,5.4089,299.4435,182.2987,188.0038,0,U,66142,999,261,0,.21E-6,0
CMS-03 (GSAT-7R),2025-249B,2026-07-14T18:54:06.117120,1.00271262,.0001467,0.0243,286.2723,153.5382,210.3289,0,U,66311,999,262,0,-.85E-6,0
VIASAT-3 F2,2025-261A,2026-07-14T07:54:32.066784,1.00270448,.00007495,0.0014,307.9780,275.9845,107.8920,0,U,66454,999,306,0,-.24E-5,0
SHIJIAN-28 (SJ-28),2025-277A,2026-07-14T19:07:38.925120,1.00267042,.000117,4.4685,271.6950,22.6779,41.9958,0,U,66549,999,243,0,-.365E-5,0
TJS-22,2025-290A,2026-07-12T19:22:52.255200,1.00269739,.0002691,1.4677,286.9097,318.9700,42.0235,0,U,66990,999,228,0,-.5E-7,0
TJS-23,2025-306A,2026-07-14T12:38:32.572896,1.00275378,.0005026,5.5269,297.3430,194.3728,165.8686,0,U,67226,999,216,0,.16E-6,0
FENGYUN 4C,2025-312A,2026-07-13T15:48:28.031328,1.00269440,.00006584,0.0385,175.3203,48.7481,77.5697,0,U,67246,999,204,0,-.328E-5,0
SHIJIAN-29A (SJ-29A),2025-315A,2026-07-14T14:52:55.014816,1.00272360,.00048703,3.4655,94.4505,52.5068,81.9068,0,U,67302,999,189,0,-.78E-6,0
SHIJIAN-29B (SJ-29B),2025-315C,2026-07-14T14:52:55.013088,1.00272646,.0004987,3.4645,94.4432,54.2548,80.2132,0,U,67403,999,196,0,-.79E-6,0
ELEKTRO-L 5,2026-028A,2026-07-13T23:28:15.513312,1.00271936,.00020659,0.2090,324.1006,175.9654,219.9345,0,U,67756,999,152,0,-.103E-5,0
JAM-E JAM 1,2026-028B,2026-07-14T21:33:49.059936,1.00273692,.0001695,0.2072,312.7197,320.6892,16.8216,0,U,67757,999,139,0,.147E-5,0
ECHOSTAR 25,2026-045A,2026-07-14T11:40:38.762400,1.00277458,.00021576,0.0242,64.7404,51.3190,241.4710,0,U,68126,999,126,0,0,0
TJS-24,2026-116A,2026-07-14T19:53:21.471072,1.00269853,.0000371,0.0766,94.9062,126.0206,100.3880,0,U,69235,999,50,0,-.239E-5,0
