ZHONGXING-10R           
1 63075U 25036A   26195.87323427 -.00000361  00000+0  00000+0 0  9995
2 63075   0.0176 216.7965 0004175 290.8084 210.0013  1.00272328  5233
TJS-15                  
1 63157U 25045A   26194.74757417 -.00000269  00000+0  00000+0 0  9998
2 63157   0.3063  85.6357 0003351 295.0634 274.4075  1.00269569  5025
TIANLIAN 2-04           
1 63361U 25062A   26195.78878414 -.00000140  00000+0  00000+0 0  9998
2 63361   4.3055 274.0424 0031596   9.3670  13.2136  1.00271004  4881
TJS-16                  
1 63397U 25064A   26194.76445146 -.00000111  00000+0  00000+0 0  9996
2 63397   1.1643  81.2920 0002489 290.3397 355.8257  1.00270806  4657
TJS-17                  
1 63524U 25073A   26194.76226279 -.00000076  00000+0  00000+0 0  9992
2 63524   1.1304  82.4646 0000992 303.0552 345.0327  1.00270523  4557
TIANLIAN 2-05           
1 63662U 25084A   26195.83767313  .00000119  00000+0  00000+0 0  9992
2 63662   4.3828 279.5191 0002575 154.1451 180.9498  1.00271253  4659
TJS-19                  
1 63924U 25097A   26194.73157992 -.00000278  00000+0  00000+0 0  9998
2 63924   3.2430 317.8726 0003966 245.4291 132.8569  1.00266719  4418
CHINASAT 3B             
1 64062U 25106A   26195.73479962 -.00000054  00000+0  00000+0 0  9990
2 64062   0.0247 140.7771 0003894   5.4649 218.1905  1.00270420  4334
SXM-10                  
1 64290U 25122A   26194.60932681 -.00000021  00000+0  00000+0 0  9992
2 64290   0.0157  36.2449 0001828 322.9748  35.4661  1.00271903  3942
COSMOS 2589             
1 64467U 25131A   26194.72299990 -.00000296  00000+0  00000+0 0  9994
2 64467   0.0273 122.3287 0000927  83.5150  84.0384  1.00273922  3822
CHINASAT 9C             
1 64470U 25132A   26195.79121081  .00000000  00000+0  00000+0 0  9994
2 64470   0.0171  71.6717 0002959  43.3577 194.6620  1.00267037  4429
MTG-S1                  
1 64723U 25143A   26195.77285397 -.00000015  00000+0  00000+0 0  9993
2 64723   0.5846 345.0208 0003464 261.5494 323.8774  1.00273434  3693
DROR 1                  
1 64784U 25148A   26195.77216064 -.00000043  00000+0  00000+0 0  9991
2 64784   0.0472 256.8468 0001975 139.2610 170.4949  1.00271852  3572
SHIYAN-29               
1 65486U 25196A   26195.84006205 -.00000286  00000+0  00000+0 0  9995
2 65486  28.8510  18.1865 0013306 177.9549 134.2779  1.00276426  3159
NUSANTARA LIMA (NUSANT*)
1 65588U 25205A   26195.79528417 -.00000366  00000+0  00000+0 0  9996
2 65588   0.0077 124.7696 0000314  83.3862 123.6307  1.00268572  2994
TJS-20                  
1 66142U 25238A   26195.87377669  .00000021  00000+0  00000+0 0  9996
2 66142   5.4089 299.4435 0004293 182.2987 188.0038  1.00274781  2615
CMS-03 (GSAT-7R)        
1 66311U 25249B   26195.78757080 -.00000085  00000+0  00000+0 0  9996
2 66311   0.0243 286.2723 0001467 153.5382 210.3289  1.00271262  2629
VIASAT-3 F2             
1 66454U 25261A   26195.32953781 -.00000240  00000+0  00000+0 0  9997
2 66454   0.0014 307.9780 0000749 275.9845 107.8920  1.00270448  3068
SHIJIAN-28 (SJ-28)      
1 66549U 25277A   26195.79697830 -.00000365  00000+0  00000+0 0  9998
2 66549   4.4685 271.6950 0001170  22.6779  41.9958  1.00267042  2438
TJS-22                  
1 66990U 25290A   26193.80754925 -.00000005  00000+0  00000+0 0  9993
2 66990   1.4677 286.9097 0002691 318.9700  42.0235  1.00269739  2289
TJS-23                  
1 67226U 25306A   26195.52676589  .00000016  00000+0  00000+0 0  9995
2 67226   5.5269 297.3430 0005026 194.3728 165.8686  1.00275378  2169
FENGYUN 4C              
1 67246U 25312A   26194.65865777 -.00000328  00000+0  00000+0 0  9993
2 67246   0.0385 175.3203 0000658  48.7481  77.5697  1.00269440  2048
SHIJIAN-29A (SJ-29A)    
1 67302U 25315A   26195.62008119 -.00000078  00000+0  00000+0 0  9998
2 67302   3.4655  94.4505 0004870  52.5068  81.9068  1.00272360  1896
SHIJIAN-29B (SJ-29B)    
1 67403U 25315C   26195.62008117 -.00000079  00000+0  00000+0 0  9999
2 67403   3.4645  94.4432 0004987  54.2548  80.2132  1.00272646  1966
ELEKTRO-L 5             
1 67756U 26028A   26194.97795733 -.00000103  00000+0  00000+0 0  9994
2 67756   0.2090 324.1006 0002065 175.9654 219.9345  1.00271936  1520
JAM-E JAM 1             
1 67757U 26028B   26195.89848449  .00000147  00000+0  00000+0 0  9997
2 67757   0.2072 312.7197 0001695 320.6892  16.8216  1.00273692  1393
ECHOSTAR 25             
1 68126U 26045A   26195.48655975  .00000000  00000+0  00000+0 0  9990
2 68126   0.0242  64.7404 0002157  51.3190 241.4710  1.00277458  1264
TJS-24                  
1 69235U 26116A   26195.82872073 -.00000239  00000+0  00000+0 0  9994
2 69235   0.0766  94.9062 0000371 126.0206 100.3880  1.00269853   503
